OBJECT_NAME,OBJECT_ID,EPOCH,MEAN_MOTION,ECCENTRICITY,INCLINATION,RA_OF_ASC_NODE,ARG_OF_PERICENTER,MEAN_ANOMALY,EPHEMERIS_TYPE,CLASSIFICATION_TYPE,NORAD_CAT_ID,ELEMENT_SET_NO,REV_AT_EPOCH,BSTAR,MEAN_MOTION_DOT,MEAN_MOTION_DDOT
STARLINK-4095,2022-083AQ,2026-05-15T11:43:13.623168,15.08837830,.00010734,53.2168,219.2026,87.0826,273.0289,0,U,53170,999,21151,.16356429E-4,-.27E-6,0
STARLINK-4052,2022-083AR,2026-05-16T03:00:37.307520,15.08836936,.00009949,53.2161,191.1498,77.9291,282.1813,0,U,53171,999,21195,.29541675E-4,.182E-5,0
STARLINK-4299,2022-083AS,2026-05-15T14:43:23.785536,15.08837511,.00010467,53.2167,218.6028,104.9357,255.1751,0,U,53172,999,21152,.17357849E-4,-.12E-6,0
STARLINK-4300,2022-083AT,2026-05-15T13:37:11.726976,15.08842039,.00014276,53.2163,198.8852,108.3596,251.7551,0,U,53173,999,21179,.74265272E-4,.894E-5,0
STARLINK-4205,2022-083AU,2026-05-15T15:43:43.838400,15.08837268,.00011974,53.2173,233.4337,89.8702,270.2428,0,U,53174,999,21132,.35106334E-4,.271E-5,0
STARLINK-4292,2022-083AV,2026-05-15T11:01:30.379296,15.08837981,.00011454,53.2169,234.3792,86.3319,273.7804,0,U,53175,999,21129,.93185114E-4,.1195E-4,0
STARLINK-4294,2022-083AW,2026-05-16T04:36:41.418720,15.08841066,.00010521,53.2170,206.0015,84.6249,275.4863,0,U,53176,999,21175,.26800814E-4,.139E-5,0
STARLINK-4298,2022-083AX,2026-05-16T03:45:02.412288,15.08840876,.00010473,53.2159,196.2380,80.3407,279.7703,0,U,53177,999,21188,.31087507E-4,.207E-5,0
STARLINK-4280,2022-083AY,2026-05-16T05:56:51.194400,15.08841251,.00010756,53.2163,220.8400,85.7770,274.3345,0,U,53178,999,21154,.42382356E-4,.387E-5,0
STARLINK-4276,2022-083AZ,2026-05-15T20:13:52.649472,15.08839403,.00008781,53.2164,182.2567,88.9025,271.2068,0,U,53179,999,21205,.79888573E-4,.984E-5,0
STARLINK-4258,2022-083BA,2026-05-16T03:12:33.343200,15.08841172,.00009722,53.2157,181.2197,90.5183,269.5920,0,U,53180,999,21209,.54982469E-4,.587E-5,0
STARLINK-4278,2022-083BC,2026-05-16T03:39:44.451648,15.08841766,.00010621,53.2161,196.2574,83.4022,276.7091,0,U,53182,999,21188,.6791001E-4,.793E-5,0
STARLINK-4268,2022-083BD,2026-05-16T03:51:38.885472,15.08838686,.00010824,53.2162,186.1421,82.3804,277.7311,0,U,53183,999,21202,.3785789E-5,-.228E-5,0
STARLINK-4257,2022-083BE,2026-05-16T00:54:44.342208,15.08834872,.00011516,53.2161,181.3666,85.4763,274.6361,0,U,53184,999,21209,.38318435E-4,.322E-5,0
STARLINK-4391,2022-084A,2026-05-16T03:29:26.422080,15.05654160,.00019826,97.4847,197.4557,92.4467,267.6987,0,U,53189,999,21020,-.64928441E-4,-.996E-5,0
STARLINK-4332,2022-084B,2026-05-16T03:49:22.476288,15.05704345,.00010618,97.4840,197.5054,112.0744,248.0596,0,U,53190,999,21020,-.75649506E-3,-.10973E-3,0
STARLINK-4369,2022-084C,2026-05-16T08:00:01.999872,15.19835668,.00011811,97.6004,197.0568,60.4762,203.9933,0,U,53191,999,579,-.76207171E-3,-.16357E-3,0
STARLINK-4375,2022-084D,2026-05-16T02:57:27.786528,15.05716761,.00038781,97.4877,197.4681,133.4710,226.6840,0,U,53192,999,21019,.52064965E-3,.7475E-4,0
STARLINK-4351,2022-084E,2026-05-16T03:43:26.251680,15.05655167,.00013707,97.4846,196.3747,139.0370,221.0960,0,U,53193,999,21047,-.67723153E-4,-.1036E-4,0
STARLINK-4382,2022-084F,2026-05-16T03:21:27.780768,15.05652202,.0001481,97.4849,197.4530,133.4655,226.6696,0,U,53194,999,20952,-.3844798E-5,-.115E-5,0
STARLINK-4403,2022-084J,2026-05-16T03:35:27.886848,15.05663432,.00014735,97.4866,196.3559,131.5176,228.6177,0,U,53197,999,20945,-.42502111E-4,-.673E-5,0
STARLINK-4385,2022-084K,2026-05-16T04:19:20.203680,15.05648520,.00007438,97.4841,196.4788,138.1027,222.0257,0,U,53198,999,21012,.85347272E-4,.1173E-4,0
STARLINK-4395,2022-084L,2026-05-16T04:21:16.720128,15.05648965,.00035879,97.4892,197.5332,139.5154,220.6340,0,U,53199,999,20953,-.34128446E-4,-.552E-5,0
STARLINK-4417,2022-084M,2026-05-16T03:13:29.099712,15.05662458,.000187,97.4873,197.4442,133.2720,226.8663,0,U,53200,999,21018,-.76064357E-4,-.1157E-4,0
STARLINK-4405,2022-084N,2026-05-16T08:00:01.999872,15.18734709,.0001475,97.6006,198.1781,102.0909,3.2555,0,U,53201,999,579,-.68211398E-3,-.14195E-3,0
STARLINK-4411,2022-084P,2026-05-16T04:05:15.527040,15.05711810,.00043432,97.4859,197.5425,135.3077,224.8501,0,U,53202,999,20953,.51476555E-3,.7389E-4,0
STARLINK-4409,2022-084Q,2026-05-16T04:01:20.563104,15.05652165,.00034224,97.4834,197.5278,130.8287,229.3237,0,U,53203,999,20953,-.12814012E-4,-.244E-5,0
STARLINK-4410,2022-084R,2026-05-16T08:00:01.999872,15.18389375,.00014289,97.6009,196.9535,78.4529,2.0905,0,U,53204,999,569,.12864446E-1,.274391E-2,0
STARLINK-4397,2022-084S,2026-05-16T03:53:22.671744,15.05689181,.00002752,97.4900,197.5355,141.7520,218.3727,0,U,53205,999,20953,-.82740702E-3,-.1199E-3,0
STARLINK-4408,2022-084T,2026-05-16T04:13:17.587200,15.05681031,.00017512,97.4845,197.5162,129.0594,231.0789,0,U,53206,999,20953,-.41874341E-3,-.6101E-4,0
