STARLINK-4095           
1 53170U 22083AQ  26135.48835212 -.00000027  00000+0  16356-4 0  9995
2 53170  53.2168 219.2026 0001073  87.0826 273.0289 15.08837830211511
STARLINK-4052           
1 53171U 22083AR  26136.12543180  .00000182  00000+0  29542-4 0  9990
2 53171  53.2161 191.1498 0000994  77.9291 282.1813 15.08836936211959
STARLINK-4299           
1 53172U 22083AS  26135.61346974 -.00000012  00000+0  17358-4 0  9991
2 53172  53.2167 218.6028 0001046 104.9357 255.1751 15.08837511211527
STARLINK-4300           
1 53173U 22083AT  26135.56749684  .00000894  00000+0  74265-4 0  9998
2 53173  53.2163 198.8852 0001427 108.3596 251.7551 15.08842039211794
STARLINK-4205           
1 53174U 22083AU  26135.65536850  .00000271  00000+0  35106-4 0  9998
2 53174  53.2173 233.4337 0001197  89.8702 270.2428 15.08837268211322
STARLINK-4292           
1 53175U 22083AV  26135.45937939  .00001195  00000+0  93185-4 0  9997
2 53175  53.2169 234.3792 0001145  86.3319 273.7804 15.08837981211296
STARLINK-4294           
1 53176U 22083AW  26136.19214605  .00000139  00000+0  26801-4 0  9996
2 53176  53.2170 206.0015 0001052  84.6249 275.4863 15.08841066211757
STARLINK-4298           
1 53177U 22083AX  26136.15627792  .00000207  00000+0  31088-4 0  9997
2 53177  53.2159 196.2380 0001047  80.3407 279.7703 15.08840876211885
STARLINK-4280           
1 53178U 22083AY  26136.24781475  .00000387  00000+0  42382-4 0  9995
2 53178  53.2163 220.8400 0001075  85.7770 274.3345 15.08841251211545
STARLINK-4276           
1 53179U 22083AZ  26135.84297048  .00000984  00000+0  79889-4 0  9994
2 53179  53.2164 182.2567 0000878  88.9025 271.2068 15.08839403212051
STARLINK-4258           
1 53180U 22083BA  26136.13371925  .00000587  00000+0  54982-4 0  9992
2 53180  53.2157 181.2197 0000972  90.5183 269.5920 15.08841172212099
STARLINK-4278           
1 53182U 22083BC  26136.15259782  .00000793  00000+0  67910-4 0  9996
2 53182  53.2161 196.2574 0001062  83.4022 276.7091 15.08841766211889
STARLINK-4268           
1 53183U 22083BD  26136.16086673 -.00000228  00000+0  37858-5 0  9998
2 53183  53.2162 186.1421 0001082  82.3804 277.7311 15.08838686212028
STARLINK-4257           
1 53184U 22083BE  26136.03801322  .00000322  00000+0  38318-4 0  9996
2 53184  53.2161 181.3666 0001151  85.4763 274.6361 15.08834872212092
STARLINK-4391           
1 53189U 22084A   26136.14544470 -.00000996  00000+0 -64928-4 0  9997
2 53189  97.4847 197.4557 0001982  92.4467 267.6987 15.05654160210200
STARLINK-4332           
1 53190U 22084B   26136.15928792 -.00010973  00000+0 -75650-3 0  9992
2 53190  97.4840 197.5054 0001061 112.0744 248.0596 15.05704345210203
STARLINK-4369           
1 53191U 22084C   26136.33335648 -.00016357  00000+0 -76207-3 0  9996
2 53191  97.6004 197.0568 0001181  60.4762 203.9933 15.19835668  5791
STARLINK-4375           
1 53192U 22084D   26136.12323827  .00007475  00000+0  52065-3 0  9995
2 53192  97.4877 197.4681 0003878 133.4710 226.6840 15.05716761210195
STARLINK-4351           
1 53193U 22084E   26136.15516495 -.00001036  00000+0 -67723-4 0  9991
2 53193  97.4846 196.3747 0001370 139.0370 221.0960 15.05655167210477
STARLINK-4382           
1 53194U 22084F   26136.13990487 -.00000115  00000+0 -38448-5 0  9997
2 53194  97.4849 197.4530 0001481 133.4655 226.6696 15.05652202209528
STARLINK-4403           
1 53197U 22084J   26136.14962832 -.00000673  00000+0 -42502-4 0  9998
2 53197  97.4866 196.3559 0001473 131.5176 228.6177 15.05663432209452
STARLINK-4385           
1 53198U 22084K   26136.18009495  .00001173  00000+0  85347-4 0  9998
2 53198  97.4841 196.4788 0000743 138.1027 222.0257 15.05648520210122
STARLINK-4395           
1 53199U 22084L   26136.18144352 -.00000552  00000+0 -34128-4 0  9994
2 53199  97.4892 197.5332 0003587 139.5154 220.6340 15.05648965209534
STARLINK-4417           
1 53200U 22084M   26136.13436458 -.00001157  00000+0 -76064-4 0  9990
2 53200  97.4873 197.4442 0001870 133.2720 226.8663 15.05662458210182
STARLINK-4405           
1 53201U 22084N   26136.33335648 -.00014195  00000+0 -68211-3 0  9992
2 53201  97.6006 198.1781 0001475 102.0909   3.2555 15.18734709  5790
STARLINK-4411           
1 53202U 22084P   26136.17031860  .00007389  00000+0  51477-3 0  9995
2 53202  97.4859 197.5425 0004343 135.3077 224.8501 15.05711810209539
STARLINK-4409           
1 53203U 22084Q   26136.16759911 -.00000244  00000+0 -12814-4 0  9997
2 53203  97.4834 197.5278 0003422 130.8287 229.3237 15.05652165209532
STARLINK-4410           
1 53204U 22084R   26136.33335648  .00274391  00000+0  12864-1 0  9990
2 53204  97.6009 196.9535 0001428  78.4529   2.0905 15.18389375  5691
STARLINK-4397           
1 53205U 22084S   26136.16206796 -.00011990  00000+0 -82741-3 0  9992
2 53205  97.4900 197.5355 0000275 141.7520 218.3727 15.05689181209538
STARLINK-4408           
1 53206U 22084T   26136.17589800 -.00006101  00000+0 -41874-3 0  9994
2 53206  97.4845 197.5162 0001751 129.0594 231.0789 15.05681031209539
